{
  "type": "FeatureCollection",
  "features": [
    {
      "type": "Feature",
      "properties": {
        "norad_id": 35771,
        "name": "COSMOS 2251 DEB",
        "group": "cosmos-2251-debris",
        "lat": 13.837006063925216,
        "lon": -62.66546775784525,
        "alt_km": 982.0550439570525,
        "timestamp": "2025-12-22T09:53:37.796677+00:00",
        "meta_object_name": "COSMOS 2251 DEB",
        "meta_object_id": "1993-036ARR",
        "meta_epoch": "2025-12-15T14:45:16.238592",
        "meta_mean_motion": 14.13430046,
        "meta_eccentricity": 0.02280549,
        "meta_inclination": 74.1561,
        "meta_ra_of_asc_node": 305.27,
        "meta_arg_of_pericenter": 242.9998,
        "meta_mean_anomaly": 114.7698,
        "meta_ephemeris_type": 0,
        "meta_classification_type": "U",
        "meta_norad_cat_id": 35771,
        "meta_element_set_no": 999,
        "meta_rev_at_epoch": 82901,
        "meta_bstar": 0.0026764238,
        "meta_mean_motion_dot": 6.427e-05,
        "meta_mean_motion_ddot": 0,
        "tle_line1": "1 35771U 93036ARR 25349.61477128  .00006427  00000+0  26764-2 0  9998",
        "tle_line2": "2 35771  74.1561 305.2700 0228054 242.9998 114.7698 14.13430046829012"
      },
      "geometry": {
        "type": "Point",
        "coordinates": [
          -62.66546775784525,
          13.837006063925216
        ]
      }
    },
    {
      "type": "Feature",
      "properties": {
        "norad_id": 35773,
        "name": "COSMOS 2251 DEB",
        "group": "cosmos-2251-debris",
        "lat": 38.88545014203815,
        "lon": 128.8951537796092,
        "alt_km": 652.9588898726424,
        "timestamp": "2025-12-22T09:53:37.796687+00:00",
        "meta_object_name": "COSMOS 2251 DEB",
        "meta_object_id": "1993-036ART",
        "meta_epoch": "2025-12-22T04:20:10.042656",
        "meta_mean_motion": 14.62117693,
        "meta_eccentricity": 0.0045219,
        "meta_inclination": 74.0084,
        "meta_ra_of_asc_node": 322.7115,
        "meta_arg_of_pericenter": 119.964,
        "meta_mean_anomaly": 240.6027,
        "meta_ephemeris_type": 0,
        "meta_classification_type": "U",
        "meta_norad_cat_id": 35773,
        "meta_element_set_no": 999,
        "meta_rev_at_epoch": 86977,
        "meta_bstar": 0.00057329,
        "meta_mean_motion_dot": 2.894e-05,
        "meta_mean_motion_ddot": 0,
        "tle_line1": "1 35773U 93036ART 25356.18067179  .00002894  00000+0  57329-3 0  9997",
        "tle_line2": "2 35773  74.0084 322.7115 0045219 119.9640 240.6027 14.62117693869770"
      },
      "geometry": {
        "type": "Point",
        "coordinates": [
          128.8951537796092,
          38.88545014203815
        ]
      }
    },
    {
      "type": "Feature",
      "properties": {
        "norad_id": 35777,
        "name": "COSMOS 2251 DEB",
        "group": "cosmos-2251-debris",
        "lat": 53.38628827452629,
        "lon": -29.637143800748962,
        "alt_km": 1366.8014630250982,
        "timestamp": "2025-12-22T09:53:37.796698+00:00",
        "meta_object_name": "COSMOS 2251 DEB",
        "meta_object_id": "1993-036ARX",
        "meta_epoch": "2025-12-22T04:19:16.095360",
        "meta_mean_motion": 13.41306748,
        "meta_eccentricity": 0.0451839,
        "meta_inclination": 73.7706,
        "meta_ra_of_asc_node": 307.6559,
        "meta_arg_of_pericenter": 201.1078,
        "meta_mean_anomaly": 178.0054,
        "meta_ephemeris_type": 0,
        "meta_classification_type": "U",
        "meta_norad_cat_id": 35777,
        "meta_element_set_no": 999,
        "meta_rev_at_epoch": 79811,
        "meta_bstar": 0.00017717,
        "meta_mean_motion_dot": 1.57e-06,
        "meta_mean_motion_ddot": 0,
        "tle_line1": "1 35777U 93036ARX 25356.18004740  .00000157  00000+0  17717-3 0  9993",
        "tle_line2": "2 35777  73.7706 307.6559 0451839 201.1078 178.0054 13.41306748798113"
      },
      "geometry": {
        "type": "Point",
        "coordinates": [
          -29.637143800748962,
          53.38628827452629
        ]
      }
    },
    {
      "type": "Feature",
      "properties": {
        "norad_id": 35784,
        "name": "COSMOS 2251 DEB",
        "group": "cosmos-2251-debris",
        "lat": 73.17721255604815,
        "lon": -179.62038998608332,
        "alt_km": 725.6902504593927,
        "timestamp": "2025-12-22T09:53:37.796708+00:00",
        "meta_object_name": "COSMOS 2251 DEB",
        "meta_object_id": "1993-036ASE",
        "meta_epoch": "2025-12-17T23:28:57.859680",
        "meta_mean_motion": 14.50055355,
        "meta_eccentricity": 0.00415956,
        "meta_inclination": 74.0403,
        "meta_ra_of_asc_node": 79.8718,
        "meta_arg_of_pericenter": 209.9484,
        "meta_mean_anomaly": 149.9297,
        "meta_ephemeris_type": 0,
        "meta_classification_type": "U",
        "meta_norad_cat_id": 35784,
        "meta_element_set_no": 999,
        "meta_rev_at_epoch": 65782,
        "meta_bstar": 0.00024795111,
        "meta_mean_motion_dot": 9.44e-06,
        "meta_mean_motion_ddot": 0,
        "tle_line1": "1 35784U 93036ASE 25351.97844745  .00000944  00000+0  24795-3 0  9998",
        "tle_line2": "2 35784  74.0403  79.8718 0041595 209.9484 149.9297 14.50055355657829"
      },
      "geometry": {
        "type": "Point",
        "coordinates": [
          -179.62038998608332,
          73.17721255604815
        ]
      }
    },
    {
      "type": "Feature",
      "properties": {
        "norad_id": 35786,
        "name": "COSMOS 2251 DEB",
        "group": "cosmos-2251-debris",
        "lat": -37.29107787610905,
        "lon": -142.28877199582607,
        "alt_km": 669.4497515869862,
        "timestamp": "2025-12-22T09:53:37.796718+00:00",
        "meta_object_name": "COSMOS 2251 DEB",
        "meta_object_id": "1993-036ASG",
        "meta_epoch": "2025-12-21T19:48:04.442688",
        "meta_mean_motion": 14.66307498,
        "meta_eccentricity": 0.003332,
        "meta_inclination": 74.0136,
        "meta_ra_of_asc_node": 26.2337,
        "meta_arg_of_pericenter": 153.7976,
        "meta_mean_anomaly": 206.4888,
        "meta_ephemeris_type": 0,
        "meta_classification_type": "U",
        "meta_norad_cat_id": 35786,
        "meta_element_set_no": 999,
        "meta_rev_at_epoch": 73541,
        "meta_bstar": 0.00067287,
        "meta_mean_motion_dot": 3.713e-05,
        "meta_mean_motion_ddot": 0,
        "tle_line1": "1 35786U 93036ASG 25355.82505142  .00003713  00000+0  67287-3 0  9993",
        "tle_line2": "2 35786  74.0136  26.2337 0033320 153.7976 206.4888 14.66307498735418"
      },
      "geometry": {
        "type": "Point",
        "coordinates": [
          -142.28877199582607,
          -37.29107787610905
        ]
      }
    },
    {
      "type": "Feature",
      "properties": {
        "norad_id": 35789,
        "name": "COSMOS 2251 DEB",
        "group": "cosmos-2251-debris",
        "lat": -58.60149298998023,
        "lon": -121.34589329765585,
        "alt_km": 764.6376785354096,
        "timestamp": "2025-12-22T09:53:37.796727+00:00",
        "meta_object_name": "COSMOS 2251 DEB",
        "meta_object_id": "1993-036ASK",
        "meta_epoch": "2025-12-20T11:22:01.638048",
        "meta_mean_motion": 14.35991601,
        "meta_eccentricity": 0.00476765,
        "meta_inclination": 74.0388,
        "meta_ra_of_asc_node": 270.1736,
        "meta_arg_of_pericenter": 7.6909,
        "meta_mean_anomaly": 352.4963,
        "meta_ephemeris_type": 0,
        "meta_classification_type": "U",
        "meta_norad_cat_id": 35789,
        "meta_element_set_no": 999,
        "meta_rev_at_epoch": 61338,
        "meta_bstar": 9.629757e-05,
        "meta_mean_motion_dot": 2.57e-06,
        "meta_mean_motion_ddot": 0,
        "tle_line1": "1 35789U 93036ASK 25354.47363007  .00000257  00000+0  96298-4 0  9993",
        "tle_line2": "2 35789  74.0388 270.1736 0047676   7.6909 352.4963 14.35991601613383"
      },
      "geometry": {
        "type": "Point",
        "coordinates": [
          -121.34589329765585,
          -58.60149298998023
        ]
      }
    },
    {
      "type": "Feature",
      "properties": {
        "norad_id": 35793,
        "name": "COSMOS 2251 DEB",
        "group": "cosmos-2251-debris",
        "lat": 37.732949707699895,
        "lon": 53.966905616210354,
        "alt_km": 628.5930456224196,
        "timestamp": "2025-12-22T09:53:37.796737+00:00",
        "meta_object_name": "COSMOS 2251 DEB",
        "meta_object_id": "1993-036ASP",
        "meta_epoch": "2025-12-21T21:32:54.269376",
        "meta_mean_motion": 14.78875941,
        "meta_eccentricity": 0.0002168,
        "meta_inclination": 74.0406,
        "meta_ra_of_asc_node": 42.1839,
        "meta_arg_of_pericenter": 81.4639,
        "meta_mean_anomaly": 100.704,
        "meta_ephemeris_type": 0,
        "meta_classification_type": "U",
        "meta_norad_cat_id": 35793,
        "meta_element_set_no": 999,
        "meta_rev_at_epoch": 65932,
        "meta_bstar": 0.0015946,
        "meta_mean_motion_dot": 0.00011735,
        "meta_mean_motion_ddot": 0,
        "tle_line1": "1 35793U 93036ASP 25355.89785034  .00011735  00000+0  15946-2 0  9995",
        "tle_line2": "2 35793  74.0406  42.1839 0002168  81.4639 100.7040 14.78875941659326"
      },
      "geometry": {
        "type": "Point",
        "coordinates": [
          53.966905616210354,
          37.732949707699895
        ]
      }
    }
  ]
}